OBJECT_NAME,OBJECT_ID,EPOCH,MEAN_MOTION,ECCENTRICITY,INCLINATION,RA_OF_ASC_NODE,ARG_OF_PERICENTER,MEAN_ANOMALY,EPHEMERIS_TYPE,CLASSIFICATION_TYPE,NORAD_CAT_ID,ELEMENT_SET_NO,REV_AT_EPOCH,BSTAR,MEAN_MOTION_DOT,MEAN_MOTION_DDOT
HAWK-5A,2022-057AB,2026-06-30T09:26:35.088288,15.51850030,.00046122,97.6616,341.0985,33.5271,326.6272,0,U,52757,999,22839,.27979657E-3,.16657E-3,0
HAWK-6B,2023-011A,2026-06-30T10:17:44.491488,15.23045462,.00017454,40.4988,274.8329,148.3317,211.7598,0,U,55324,999,18986,.17449078E-3,.4002E-4,0
HAWK-6C,2023-011C,2026-06-30T10:16:50.340288,15.23042716,.00021792,40.4973,271.6736,124.3511,235.7505,0,U,55326,999,18987,.16950169E-3,.3881E-4,0
HAWK-6A,2023-011D,2026-06-30T10:16:53.524992,15.23043625,.00017547,40.4982,273.2992,121.1089,238.9893,0,U,55327,999,18987,.17528897E-3,.4021E-4,0
HAWK-7A,2023-054P,2026-06-30T11:23:44.035872,15.27494802,.00031482,97.2689,68.4747,25.7496,334.3900,0,U,56191,999,17905,.19543653E-3,.5185E-4,0
HAWK-7B,2023-054R,2026-06-30T11:23:38.146848,15.27493309,.00028453,97.2715,66.7432,44.3413,315.8054,0,U,56193,999,17905,.19818357E-3,.5259E-4,0
HAWK-7C,2023-054Y,2026-06-30T05:06:08.143200,15.27490252,.00026268,97.2693,67.2522,33.8124,326.3283,0,U,56200,999,17901,.194679E-3,.5164E-4,0
