HAWK-5A                 
1 52757U 22057AB  26181.39346167  .00016657  00000+0  27980-3 0  9992
2 52757  97.6616 341.0985 0004612  33.5271 326.6272 15.51850030228397
HAWK-6B                 
1 55324U 23011A   26181.42898717  .00004002  00000+0  17449-3 0  9993
2 55324  40.4988 274.8329 0001745 148.3317 211.7598 15.23045462189860
HAWK-6C                 
1 55326U 23011C   26181.42836042  .00003881  00000+0  16950-3 0  9998
2 55326  40.4973 271.6736 0002179 124.3511 235.7505 15.23042716189879
HAWK-6A                 
1 55327U 23011D   26181.42839728  .00004021  00000+0  17529-3 0  9993
2 55327  40.4982 273.2992 0001754 121.1089 238.9893 15.23043625189870
HAWK-7A                 
1 56191U 23054P   26181.47481523  .00005185  00000+0  19544-3 0  9992
2 56191  97.2689  68.4747 0003148  25.7496 334.3900 15.27494802179056
HAWK-7B                 
1 56193U 23054R   26181.47474707  .00005259  00000+0  19818-3 0  9996
2 56193  97.2715  66.7432 0002845  44.3413 315.8054 15.27493309179054
HAWK-7C                 
1 56200U 23054Y   26181.21259425  .00005164  00000+0  19468-3 0  9991
2 56200  97.2693  67.2522 0002626  33.8124 326.3283 15.27490252179014
